[{"OBJECT_NAME":"ICEYE-X6","OBJECT_ID":"2020-068M","EPOCH":"2026-03-09T22:38:15.311328","MEAN_MOTION":15.03906063,"ECCENTRICITY":0.00090855,"INCLINATION":98.0946,"RA_OF_ASC_NODE":57.9399,"ARG_OF_PERICENTER":68.4739,"MEAN_ANOMALY":291.7454,"EPHEMERIS_TYPE":0,"CLASSIFICATION_TYPE":"U","NORAD_CAT_ID":46497,"ELEMENT_SET_NO":999,"REV_AT_EPOCH":29831,"BSTAR":0.00025875904,"MEAN_MOTION_DOT":3.502e-5,"MEAN_MOTION_DDOT":0},{"OBJECT_NAME":"STARLINK-35028","OBJECT_ID":"2025-191C","EPOCH":"2026-03-09T14:53:25.895040","MEAN_MOTION":15.05649242,"ECCENTRICITY":0.0002533,"INCLINATION":97.602,"RA_OF_ASC_NODE":301.5308,"ARG_OF_PERICENTER":89.3029,"MEAN_ANOMALY":270.8488,"EPHEMERIS_TYPE":0,"CLASSIFICATION_TYPE":"U","NORAD_CAT_ID":65381,"ELEMENT_SET_NO":999,"REV_AT_EPOCH":3026,"BSTAR":0.0003301,"MEAN_MOTION_DOT":4.705e-5,"MEAN_MOTION_DDOT":0}]
